0 SL-16 DEB
1 18417U 87027D   13281.89244102  .00000063  00000-0  97150-4 0  9412
2 18417 070.9974 078.9515 0203153 017.9208 094.0971 13.73609164331158
0 SL-16 DEB
1 18417U 87027D   13287.49020346  .00000047  00000-0  82718-4 0  9434
2 18417 070.9987 067.9713 0203451 009.9579 055.0285 13.73610961331920
0 SL-16 DEB
1 18417U 87027D   13289.82985067  .00000099  00000-0  13061-3 0  9445
2 18417 070.9991 063.3823 0203585 006.6337 104.5905 13.73611456332246
0 SL-16 DEB
1 18417U 87027D   13292.51605420  .00000128  00000-0  15805-3 0  9459
2 18417 070.9994 058.1139 0203721 002.8120 067.8841 13.73612090332617
0 SL-16 DEB
1 18417U 87027D   13294.79242531  .00000148  00000-0  17652-3 0  9466
2 18417 070.9994 053.6491 0203841 359.5815 164.5506 13.73612953332929
